NORAD_CAT_ID,OBJECT_NAME,OBJECT_TYPE,EPOCH,MEAN_MOTION,ECCENTRICITY,INCLINATION,RA_OF_ASC_NODE,ARG_OF_PERICENTER,MEAN_ANOMALY,BSTAR,MEAN_MOTION_DOT,MEAN_MOTION_DDOT,TLE_LINE0,TLE_LINE1,TLE_LINE2,SEMIMAJOR_AXIS,PERIOD,APOGEE,PERIGEE,DECAYED
54168.0,STARLINK-5245,PAYLOAD,2023-06-06 13:23:19,15.08840634,0.000102,53.2172,205.4048,89.679,270.4319,-6.5599e-07,-2.98e-06,0.0,0 STARLINK-5245,1 54168U 22141M   23157.55786559 -.00000298  00000-0 -65599-6 0  9993,2 54168  53.2172 205.4048 0001020  89.6790 270.4319 15.08840634 33811,6917.878,95.438,540.449,539.038,0.0
54168.0,STARLINK-5245,PAYLOAD,2023-06-07 11:38:43,15.08839365,8.84e-05,53.2159,201.2392,78.7886,281.3205,2.7397e-05,1.48e-06,0.0,0 STARLINK-5245,1 54168U 22141M   23158.48522662  .00000148  00000-0  27397-4 0  9993,2 54168  53.2159 201.2392 0000884  78.7886 281.3205 15.08839365 33953,6917.882,95.438,540.359,539.136,0.0
54168.0,STARLINK-5245,PAYLOAD,2023-06-07 19:35:39,15.08837462,8.95e-05,53.2158,199.7521,76.4084,283.7008,1.0331e-05,-1.23e-06,0.0,0 STARLINK-5245,1 54168U 22141M   23158.81642873 -.00000123  00000-0  10331-4 0  9991,2 54168  53.2158 199.7521 0000895  76.4084 283.7008 15.08837462 34004,6917.888,95.438,540.372,539.134,0.0
54168.0,STARLINK-5245,PAYLOAD,2023-06-08 11:29:30,15.088385,8.96e-05,53.2154,196.7784,77.1326,282.9766,3.3333e-05,2.43e-06,0.0,0 STARLINK-5245,1 54168U 22141M   23159.47882924  .00000243  00000-0  33333-4 0  9996,2 54168  53.2154 196.7784 0000896  77.1326 282.9766 15.08838500 34103,6917.885,95.438,540.37,539.13,0.0
54168.0,STARLINK-5245,PAYLOAD,2023-06-08 22:37:12,15.08835556,8.9e-05,53.2155,194.6968,82.2292,277.8801,4.7789e-05,4.73e-06,0.0,0 STARLINK-5245,1 54168U 22141M   23159.94251128  .00000473  00000-0  47789-4 0  9999,2 54168  53.2155 194.6968 0000890  82.2292 277.8801 15.08835556 34176,6917.894,95.438,540.375,539.143,0.0
54168.0,STARLINK-5245,PAYLOAD,2023-06-09 09:44:54,15.08838418,9.21e-05,53.2155,192.6157,83.7323,276.3774,4.1651e-05,3.75e-06,0.0,0 STARLINK-5245,1 54168U 22141M   23160.40619055  .00000375  00000-0  41651-4 0  9992,2 54168  53.2155 192.6157 0000921  83.7323 276.3774 15.08838418 34241,6917.885,95.438,540.387,539.113,0.0
54168.0,STARLINK-5245,PAYLOAD,2023-06-09 19:17:13,15.08838501,9.15e-05,53.2154,190.8318,83.6126,276.4971,3.5214e-05,2.73e-06,0.0,0 STARLINK-5245,1 54168U 22141M   23160.80363103  .00000273  00000-0  35214-4 0  9991,2 54168  53.2154 190.8318 0000915  83.6126 276.4971 15.08838501 34302,6917.885,95.438,540.383,539.117,0.0
54168.0,STARLINK-5245,PAYLOAD,2023-06-10 00:03:23,15.0883656,9.13e-05,53.2154,189.9397,84.0846,276.025,3.9629e-05,3.43e-06,0.0,0 STARLINK-5245,1 54168U 22141M   23161.00235241  .00000343  00000-0  39629-4 0  9997,2 54168  53.2154 189.9397 0000913  84.0846 276.0250 15.08836560 34332,6917.891,95.438,540.388,539.124,0.0
54168.0,STARLINK-5245,PAYLOAD,2023-06-10 11:11:05,15.08839241,9.06e-05,53.2155,187.8582,83.3338,276.7757,3.6783e-05,2.98e-06,0.0,0 STARLINK-5245,1 54168U 22141M   23161.46603161  .00000298  00000-0  36783-4 0  9994,2 54168  53.2155 187.8582 0000906  83.3338 276.7757 15.08839241 34402,6917.883,95.438,540.374,539.121,0.0
54168.0,STARLINK-5245,PAYLOAD,2023-06-10 19:08:00,15.08838566,9.03e-05,53.2155,186.3712,82.7042,277.4053,3.2305e-05,2.26e-06,0.0,0 STARLINK-5245,1 54168U 22141M   23161.79723231  .00000226  00000-0  32305-4 0  9998,2 54168  53.2155 186.3712 0000903  82.7042 277.4053 15.08838566 34454,6917.885,95.438,540.374,539.125,0.0
54168.0,STARLINK-5245,PAYLOAD,2023-06-11 01:29:33,15.08838485,8.89e-05,53.2155,185.1815,82.9989,277.1104,3.909e-05,3.34e-06,0.0,0 STARLINK-5245,1 54168U 22141M   23162.06219226  .00000334  00000-0  39090-4 0  9991,2 54168  53.2155 185.1815 0000889  82.9989 277.1104 15.08838485 34498,6917.885,95.438,540.365,539.135,0.0
54168.0,STARLINK-5245,PAYLOAD,2023-06-11 07:51:05,15.08840265,8.94e-05,53.2154,183.992,82.7711,277.3383,5.1223e-05,5.28e-06,0.0,0 STARLINK-5245,1 54168U 22141M   23162.32715095  .00000528  00000-0  51223-4 0  9992,2 54168  53.2154 183.9920 0000894  82.7711 277.3383 15.08840265 34532,6917.88,95.438,540.363,539.126,0.0
54168.0,STARLINK-5245,PAYLOAD,2023-06-11 18:58:47,15.08840944,8.73e-05,53.2154,181.9099,84.5233,275.5858,4.8352e-05,4.82e-06,0.0,0 STARLINK-5245,1 54168U 22141M   23162.79083020  .00000482  00000-0  48352-4 0  9997,2 54168  53.2154 181.9099 0000873  84.5233 275.5858 15.08840944 34602,6917.878,95.437,540.346,539.139,0.0
54168.0,STARLINK-5245,PAYLOAD,2023-06-12 10:52:38,15.08841805,8.82e-05,53.2153,178.9359,85.2582,274.8511,5.977e-05,6.64e-06,0.0,0 STARLINK-5245,1 54168U 22141M   23163.45322858  .00000664  00000-0  59770-4 0  9994,2 54168  53.2153 178.9359 0000882  85.2582 274.8511 15.08841805 34707,6917.875,95.437,540.35,539.13,0.0
54168.0,STARLINK-5245,PAYLOAD,2023-06-13 01:11:07,15.08836604,8.87e-05,53.215,176.2592,86.0591,274.0502,5.0562e-06,-2.07e-06,0.0,0 STARLINK-5245,1 54168U 22141M   23164.04939389 -.00000207  00000-0  50562-5 0  9998,2 54168  53.2150 176.2592 0000887  86.0591 274.0502 15.08836604 34790,6917.891,95.438,540.369,539.142,0.0
54168.0,STARLINK-5245,PAYLOAD,2023-06-13 05:57:17,15.08835872,8.79e-05,53.2152,175.3672,84.8797,275.2296,-1.2007e-06,-3.07e-06,0.0,0 STARLINK-5245,1 54168U 22141M   23164.24811464 -.00000307  00000-0 -12007-5 0  9997,2 54168  53.2152 175.3672 0000879  84.8797 275.2296 15.08835872 34829,6917.893,95.438,540.366,539.15,0.0
54168.0,STARLINK-5245,PAYLOAD,2023-06-14 01:01:54,15.08837464,8.9e-05,53.2154,171.7985,84.107,276.0023,-2.4351e-06,-3.26e-06,0.0,0 STARLINK-5245,1 54168U 22141M   23165.04299462 -.00000326  00000-0 -24351-5 0  9990,2 54168  53.2154 171.7985 0000890  84.1070 276.0023 15.08837464 34947,6917.888,95.438,540.369,539.137,0.0
54168.0,STARLINK-5245,PAYLOAD,2023-06-14 16:55:46,15.08837511,9.42e-05,53.2154,168.8235,67.5166,292.5926,3.2353e-05,2.27e-06,0.0,0 STARLINK-5245,1 54168U 22141M   23165.70539466  .00000227  00000-0  32353-4 0  9992,2 54168  53.2154 168.8235 0000942  67.5166 292.5926 15.08837511 35041,6917.888,95.438,540.405,539.101,0.0
54168.0,STARLINK-5245,PAYLOAD,2023-06-15 00:52:43,15.08819341,8.26e-05,53.2163,167.3401,93.994,266.1146,-7.5302e-05,-1.485e-05,0.0,0 STARLINK-5245,1 54168U 22141M   23166.03661117 -.00001485  00000-0 -75302-4 0  9998,2 54168  53.2163 167.3401 0000826  93.9940 266.1146 15.08819341 35091,6917.944,95.439,540.38,539.237,0.0
54168.0,STARLINK-5245,PAYLOAD,2023-06-15 05:38:52,15.08816723,8.91e-05,53.2162,166.4519,87.7809,272.3286,-6.8421e-05,-1.376e-05,0.0,0 STARLINK-5245,1 54168U 22141M   23166.23533562 -.00001376  00000-0 -68421-4 0  9995,2 54168  53.2162 166.4519 0000891  87.7809 272.3286 15.08816723 35126,6917.952,95.439,540.433,539.2,0.0
54168.0,STARLINK-5245,PAYLOAD,2023-06-15 16:46:34,15.08823193,8.3e-05,53.2161,164.3659,82.4533,277.6554,-5.3536e-05,-1.139e-05,0.0,0 STARLINK-5245,1 54168U 22141M   23166.69901583 -.00001139  00000-0 -53536-4 0  9995,2 54168  53.2161 164.3659 0000830  82.4533 277.6554 15.08823193 35198,6917.932,95.439,540.371,539.223,0.0
54168.0,STARLINK-5245,PAYLOAD,2023-06-15 23:08:07,15.088236,8.28e-05,53.2161,163.1753,84.2984,275.8102,-2.8326e-05,-7.38e-06,0.0,0 STARLINK-5245,1 54168U 22141M   23166.96397727 -.00000738  00000-0 -28326-4 0  9997,2 54168  53.2161 163.1753 0000828  84.2984 275.8102 15.08823600 35234,6917.931,95.439,540.368,539.223,0.0
54168.0,STARLINK-5245,PAYLOAD,2023-06-16 07:05:03,15.08830772,8.59e-05,53.2157,161.692,88.6634,271.4457,1.276e-05,-8.5e-07,0.0,0 STARLINK-5245,1 54168U 22141M   23167.29517417 -.00000085  00000-0  12760-4 0  9993,2 54168  53.2157 161.6920 0000859  88.6634 271.4457 15.08830772 35280,6917.909,95.438,540.368,539.179,0.0
54168.0,STARLINK-5245,PAYLOAD,2023-06-16 16:37:21,15.08835426,8.71e-05,53.2159,159.9075,75.8274,284.2815,3.2695e-05,2.33e-06,0.0,0 STARLINK-5245,1 54168U 22141M   23167.69261273  .00000233  00000-0  32695-4 0  9996,2 54168  53.2159 159.9075 0000871  75.8274 284.2815 15.08835426 35343,6917.894,95.438,540.362,539.157,0.0
54168.0,STARLINK-5245,PAYLOAD,2023-06-17 06:55:50,15.0883248,9.05e-05,53.2157,157.2282,70.1313,289.9777,0.00019415,2.803e-05,0.0,0 STARLINK-5245,1 54168U 22141M   23168.28877327  .00002803  00000-0  19415-3 0  9994,2 54168  53.2157 157.2282 0000905  70.1313 289.9777 15.08832480 35438,6917.903,95.438,540.394,539.142,0.0
54168.0,STARLINK-5245,PAYLOAD,2023-06-17 16:28:08,15.08838758,9.2e-05,53.2157,155.4443,70.5536,289.5556,0.00018707,2.691e-05,0.0,0 STARLINK-5245,1 54168U 22141M   23168.68621102  .00002691  00000-0  18707-3 0  9994,2 54168  53.2157 155.4443 0000920  70.5536 289.5556 15.08838758 35496,6917.884,95.438,540.386,539.113,0.0
54168.0,STARLINK-5245,PAYLOAD,2023-06-18 05:11:13,15.08848694,9.39e-05,53.2158,153.0654,70.0865,290.0229,0.00017249,2.459e-05,0.0,0 STARLINK-5245,1 54168U 22141M   23169.21612478  .00002459  00000-0  17249-3 0  9992,2 54168  53.2158 153.0654 0000939  70.0865 290.0229 15.08848694 35578,6917.854,95.437,540.368,539.069,0.0
54168.0,STARLINK-5245,PAYLOAD,2023-06-19 05:01:59,15.08852255,9.47e-05,53.2157,148.605,69.7817,290.3277,9.9166e-05,1.291e-05,0.0,0 STARLINK-5245,1 54168U 22141M   23170.20971892  .00001291  00000-0  99166-4 0  9993,2 54168  53.2157 148.6050 0000947  69.7817 290.3277 15.08852255 35729,6917.843,95.437,540.363,539.053,0.0
54168.0,STARLINK-5245,PAYLOAD,2023-06-19 16:09:43,15.08834926,0.0001078,53.2158,146.5238,74.1965,285.9146,-7.3093e-05,-1.451e-05,0.0,0 STARLINK-5245,1 54168U 22141M   23170.67341482 -.00001451  00000-0 -73093-4 0  9991,2 54168  53.2158 146.5238 0001078  74.1965 285.9146 15.08834926 35792,6917.896,95.438,540.507,539.015,0.0
54168.0,STARLINK-5245,PAYLOAD,2023-06-20 04:52:47,15.08842172,9.68e-05,53.2155,144.1442,81.0235,279.0867,-4.9328e-05,-1.073e-05,0.0,0 STARLINK-5245,1 54168U 22141M   23171.20332880 -.00001073  00000-0 -49328-4 0  9997,2 54168  53.2155 144.1442 0000968  81.0235 279.0867 15.08842172 35879,6917.874,95.437,540.408,539.069,0.0
